{"fetched_at":"2026-07-08T17:59:58.335Z","source":"https://celestrak.org/NORAD/elements/gp.php?NAME=O3B&FORMAT=JSON","constellation":"o3b-mpower","records":[{"OBJECT_NAME":"O3B MPOWER F1","OBJECT_ID":"2022-174A","EPOCH":"2026-07-08T05:55:26.416992","CLASSIFICATION_TYPE":"U","MEAN_MOTION":5.00114815,"ECCENTRICITY":0.000657,"INCLINATION":0.0499,"RA_OF_ASC_NODE":339.7784,"ARG_OF_PERICENTER":138.6356,"MEAN_ANOMALY":88.5216,"EPHEMERIS_TYPE":0,"NORAD_CAT_ID":54755,"ELEMENT_SET_NO":999,"REV_AT_EPOCH":6641,"BSTAR":0,"MEAN_MOTION_DOT":-9e-8,"MEAN_MOTION_DDOT":0},{"OBJECT_NAME":"O3B MPOWER F2","OBJECT_ID":"2022-174B","EPOCH":"2026-07-08T07:09:56.772000","CLASSIFICATION_TYPE":"U","MEAN_MOTION":5.00114905,"ECCENTRICITY":0.0005813,"INCLINATION":0.0458,"RA_OF_ASC_NODE":339.9411,"ARG_OF_PERICENTER":122.0524,"MEAN_ANOMALY":258.0723,"EPHEMERIS_TYPE":0,"NORAD_CAT_ID":54756,"ELEMENT_SET_NO":999,"REV_AT_EPOCH":6650,"BSTAR":0,"MEAN_MOTION_DOT":-9e-8,"MEAN_MOTION_DDOT":0},{"OBJECT_NAME":"O3B MPOWER F4","OBJECT_ID":"2023-059A","EPOCH":"2026-07-08T08:42:26.726976","CLASSIFICATION_TYPE":"U","MEAN_MOTION":5.00115462,"ECCENTRICITY":0.0007719,"INCLINATION":0.063,"RA_OF_ASC_NODE":351.0398,"ARG_OF_PERICENTER":119.9548,"MEAN_ANOMALY":249.0887,"EPHEMERIS_TYPE":0,"NORAD_CAT_ID":56367,"ELEMENT_SET_NO":999,"REV_AT_EPOCH":5966,"BSTAR":0,"MEAN_MOTION_DOT":-1e-7,"MEAN_MOTION_DDOT":0},{"OBJECT_NAME":"O3B MPOWER F3","OBJECT_ID":"2023-059B","EPOCH":"2026-07-08T04:42:20.034144","CLASSIFICATION_TYPE":"U","MEAN_MOTION":5.00116429,"ECCENTRICITY":0.0006684,"INCLINATION":0.0637,"RA_OF_ASC_NODE":350.4004,"ARG_OF_PERICENTER":113.5548,"MEAN_ANOMALY":256.1198,"EPHEMERIS_TYPE":0,"NORAD_CAT_ID":56368,"ELEMENT_SET_NO":999,"REV_AT_EPOCH":5578,"BSTAR":0,"MEAN_MOTION_DOT":-9e-8,"MEAN_MOTION_DDOT":0},{"OBJECT_NAME":"O3B MPOWER F5","OBJECT_ID":"2023-175A","EPOCH":"2026-07-08T07:07:45.545952","CLASSIFICATION_TYPE":"U","MEAN_MOTION":5.00115895,"ECCENTRICITY":0.0005416,"INCLINATION":0.0514,"RA_OF_ASC_NODE":9.7066,"ARG_OF_PERICENTER":115.2666,"MEAN_ANOMALY":235.0783,"EPHEMERIS_TYPE":0,"NORAD_CAT_ID":58346,"ELEMENT_SET_NO":999,"REV_AT_EPOCH":5049,"BSTAR":0,"MEAN_MOTION_DOT":-9e-8,"MEAN_MOTION_DDOT":0},{"OBJECT_NAME":"O3B MPOWER F6","OBJECT_ID":"2023-175B","EPOCH":"2026-07-08T09:32:26.529792","CLASSIFICATION_TYPE":"U","MEAN_MOTION":5.00115809,"ECCENTRICITY":0.0004422,"INCLINATION":0.0535,"RA_OF_ASC_NODE":1.4357,"ARG_OF_PERICENTER":103.6345,"MEAN_ANOMALY":254.9793,"EPHEMERIS_TYPE":0,"NORAD_CAT_ID":58347,"ELEMENT_SET_NO":999,"REV_AT_EPOCH":4941,"BSTAR":0,"MEAN_MOTION_DOT":-1e-7,"MEAN_MOTION_DDOT":0},{"OBJECT_NAME":"O3B MPOWER F7","OBJECT_ID":"2024-244A","EPOCH":"2026-07-08T06:20:12.528096","CLASSIFICATION_TYPE":"U","MEAN_MOTION":5.00115308,"ECCENTRICITY":0.0005964,"INCLINATION":0.0664,"RA_OF_ASC_NODE":344.0304,"ARG_OF_PERICENTER":118.3478,"MEAN_ANOMALY":257.6892,"EPHEMERIS_TYPE":0,"NORAD_CAT_ID":62362,"ELEMENT_SET_NO":999,"REV_AT_EPOCH":2758,"BSTAR":0,"MEAN_MOTION_DOT":-9e-8,"MEAN_MOTION_DDOT":0},{"OBJECT_NAME":"O3B MPOWER F8","OBJECT_ID":"2024-244B","EPOCH":"2026-07-08T10:20:27.218112","CLASSIFICATION_TYPE":"U","MEAN_MOTION":5.00115065,"ECCENTRICITY":0.000581,"INCLINATION":0.0142,"RA_OF_ASC_NODE":355.6703,"ARG_OF_PERICENTER":100.2732,"MEAN_ANOMALY":264.1233,"EPHEMERIS_TYPE":0,"NORAD_CAT_ID":62363,"ELEMENT_SET_NO":999,"REV_AT_EPOCH":2193,"BSTAR":0,"MEAN_MOTION_DOT":-1e-7,"MEAN_MOTION_DDOT":0},{"OBJECT_NAME":"O3B MPOWER F9","OBJECT_ID":"2025-153A","EPOCH":"2026-07-08T08:44:32.230752","CLASSIFICATION_TYPE":"U","MEAN_MOTION":5.00115669,"ECCENTRICITY":0.0006648,"INCLINATION":0.0606,"RA_OF_ASC_NODE":6.5244,"ARG_OF_PERICENTER":119.4507,"MEAN_ANOMALY":234.0872,"EPHEMERIS_TYPE":0,"NORAD_CAT_ID":64866,"ELEMENT_SET_NO":999,"REV_AT_EPOCH":2062,"BSTAR":0,"MEAN_MOTION_DOT":-1e-7,"MEAN_MOTION_DDOT":0},{"OBJECT_NAME":"O3B MPOWER F10","OBJECT_ID":"2025-153B","EPOCH":"2026-07-08T07:55:38.165376","CLASSIFICATION_TYPE":"U","MEAN_MOTION":5.00114883,"ECCENTRICITY":0.0002263,"INCLINATION":0.0578,"RA_OF_ASC_NODE":2.9591,"ARG_OF_PERICENTER":245.3951,"MEAN_ANOMALY":111.6222,"EPHEMERIS_TYPE":0,"NORAD_CAT_ID":64867,"ELEMENT_SET_NO":999,"REV_AT_EPOCH":2308,"BSTAR":0,"MEAN_MOTION_DOT":-1e-7,"MEAN_MOTION_DDOT":0}]}
