O3B MPOWER F1           
1 54755U 22174A   26189.24683353 -.00000009  00000+0  00000+0 0  9990
2 54755   0.0499 339.7784 0006570 138.6356  88.5216  5.00114815 66413
O3B MPOWER F2           
1 54756U 22174B   26189.29857375 -.00000009  00000+0  00000+0 0  9993
2 54756   0.0458 339.9411 0005813 122.0524 258.0723  5.00114905 66508
O3B MPOWER F4           
1 56367U 23059A   26189.36280934 -.00000010  00000+0  00000+0 0  9997
2 56367   0.0630 351.0398 0007719 119.9548 249.0887  5.00115462 59666
O3B MPOWER F3           
1 56368U 23059B   26189.19606521 -.00000009  00000+0  00000+0 0  9991
2 56368   0.0637 350.4004 0006684 113.5548 256.1198  5.00116429 55788
O3B MPOWER F5           
1 58346U 23175A   26189.29705493 -.00000009  00000+0  00000+0 0  9997
2 58346   0.0514   9.7066 0005416 115.2666 235.0783  5.00115895 50499
O3B MPOWER F6           
1 58347U 23175B   26189.39752928 -.00000010  00000+0  00000+0 0  9996
2 58347   0.0535   1.4357 0004422 103.6345 254.9793  5.00115809 49412
O3B MPOWER F7           
1 62362U 24244A   26189.26403389 -.00000009  00000+0  00000+0 0  9994
2 62362   0.0664 344.0304 0005964 118.3478 257.6892  5.00115308 27585
O3B MPOWER F8           
1 62363U 24244B   26189.43087058 -.00000010  00000+0  00000+0 0  9997
2 62363   0.0142 355.6703 0005810 100.2732 264.1233  5.00115065 21936
O3B MPOWER F9           
1 64866U 25153A   26189.36426193 -.00000010  00000+0  00000+0 0  9996
2 64866   0.0606   6.5244 0006648 119.4507 234.0872  5.00115669 20625
O3B MPOWER F10          
1 64867U 25153B   26189.33030284 -.00000010  00000+0  00000+0 0  9996
2 64867   0.0578   2.9591 0002263 245.3951 111.6222  5.00114883 23089
